start=new Date('2022-10-24T00:00:00.000Z').valueOf();
sats=[{"MEAN_ELEMENT_THEORY":"SGP4","CENTER_NAME":"EARTH","BSTAR":"0.00007785600000","LAUNCH_DATE":"2022-02-25","PERIAPSIS":"538.594","SEMIMAJOR_AXIS":"6917.854","SITE":"AFWTR","INCLINATION":"53.2172","EPOCH":"2022-10-23T19:17:33.201600","MEAN_MOTION_DDOT":"0.0000000000000","ELEMENT_SET_NO":"999","PERIOD":"95.437","REF_FRAME":"TEME","TLE_LINE1":"1 51784U 22017S   22296.80385650  .00000952  00000-0  77856-4 0  9996","MEAN_MOTION_DOT":"0.00000952","MEAN_ANOMALY":"283.7812","DECAY_DATE":null,"OBJECT_NAME":"STARLINK-3632","OBJECT_ID":"2022-017S","MEAN_MOTION":"15.08848751","EPHEMERIS_TYPE":"0","COUNTRY_CODE":"US","FILE":"3630604","REV_AT_EPOCH":"3615","RCS_SIZE":"LARGE","ARG_OF_PERICENTER":"76.3361","RA_OF_ASC_NODE":"123.7564","NORAD_CAT_ID":"51784","CLASSIFICATION_TYPE":"U","TLE_LINE2":"2 51784  53.2172 123.7564 0001625  76.3361 283.7812 15.08848751 36158","OBJECT_TYPE":"PAYLOAD","APOAPSIS":"540.843","ECCENTRICITY":"0.00016250","TIME_SYSTEM":"UTC","GP_ID":"215995610"},{"OBJECT_TYPE":"PAYLOAD","TLE_LINE2":"2 51785  53.2178 114.1673 0001778  54.3010 305.8147 15.08839786 36285","CLASSIFICATION_TYPE":"U","APOAPSIS":"540.976","RA_OF_ASC_NODE":"114.1673","ARG_OF_PERICENTER":"54.3010","NORAD_CAT_ID":"51785","GP_ID":"215996361","ECCENTRICITY":"0.00017780","TIME_SYSTEM":"UTC","OBJECT_ID":"2022-017T","MEAN_MOTION":"15.08839786","EPHEMERIS_TYPE":"0","OBJECT_NAME":"STARLINK-3646","FILE":"3630604","REV_AT_EPOCH":"3628","RCS_SIZE":"LARGE","COUNTRY_CODE":"US","MEAN_MOTION_DDOT":"0.0000000000000","INCLINATION":"53.2178","EPOCH":"2022-10-23T17:11:42.453312","REF_FRAME":"TEME","TLE_LINE1":"1 51785U 22017T   22296.71646358  .00001073  00000-0  85501-4 0  9993","MEAN_MOTION_DOT":"0.00001073","DECAY_DATE":null,"MEAN_ANOMALY":"305.8147","ELEMENT_SET_NO":"999","PERIOD":"95.438","MEAN_ELEMENT_THEORY":"SGP4","CENTER_NAME":"EARTH","LAUNCH_DATE":"2022-02-25","PERIAPSIS":"538.516","SITE":"AFWTR","SEMIMAJOR_AXIS":"6917.881","BSTAR":"0.00008550100000"},{"ECCENTRICITY":"0.00017370","TIME_SYSTEM":"UTC","GP_ID":"215997113","ARG_OF_PERICENTER":"59.7334","RA_OF_ASC_NODE":"123.7864","NORAD_CAT_ID":"51786","APOAPSIS":"540.929","OBJECT_TYPE":"PAYLOAD","TLE_LINE2":"2 51786  53.2156 123.7864 0001737  59.7334 300.3830 15.08845810 36153","CLASSIFICATION_TYPE":"U","COUNTRY_CODE":"US","FILE":"3630604","RCS_SIZE":"LARGE","REV_AT_EPOCH":"3615","OBJECT_NAME":"STARLINK-3638","EPHEMERIS_TYPE":"0","OBJECT_ID":"2022-017U","MEAN_MOTION":"15.08845810","ELEMENT_SET_NO":"999","PERIOD":"95.437","MEAN_MOTION_DOT":"0.00000446","TLE_LINE1":"1 51786U 22017U   22296.79649796  .00000446  00000-0  46116-4 0  9993","DECAY_DATE":null,"MEAN_ANOMALY":"300.3830","REF_FRAME":"TEME","EPOCH":"2022-10-23T19:06:57.423744","INCLINATION":"53.2156","MEAN_MOTION_DDOT":"0.0000000000000","BSTAR":"0.00004611600000","SEMIMAJOR_AXIS":"6917.863","SITE":"AFWTR","LAUNCH_DATE":"2022-02-25","PERIAPSIS":"538.526","CENTER_NAME":"EARTH","MEAN_ELEMENT_THEORY":"SGP4"},{"CENTER_NAME":"EARTH","MEAN_ELEMENT_THEORY":"SGP4","SEMIMAJOR_AXIS":"6917.852","SITE":"AFWTR","PERIAPSIS":"538.253","LAUNCH_DATE":"2022-02-25","BSTAR":"0.00009853400000","MEAN_MOTION_DDOT":"0.0000000000000","EPOCH":"2022-10-23T19:28:09.326784","INCLINATION":"53.2161","DECAY_DATE":null,"MEAN_ANOMALY":"307.0729","MEAN_MOTION_DOT":"0.00001281","TLE_LINE1":"1 51787U 22017V   22296.81121906  .00001281  00000-0  98534-4 0  9994","REF_FRAME":"TEME","PERIOD":"95.437","ELEMENT_SET_NO":"999","EPHEMERIS_TYPE":"0","MEAN_MOTION":"15.08849417","OBJECT_ID":"2022-017V","OBJECT_NAME":"STARLINK-3619","REV_AT_EPOCH":"3615","RCS_SIZE":"LARGE","FILE":"3630604","COUNTRY_CODE":"US","APOAPSIS":"541.180","TLE_LINE2":"2 51787  53.2161 123.7250 0002116  53.0457 307.0729 15.08849417 36152","CLASSIFICATION_TYPE":"U","OBJECT_TYPE":"PAYLOAD","NORAD_CAT_ID":"51787","ARG_OF_PERICENTER":"53.0457","RA_OF_ASC_NODE":"123.7250","GP_ID":"215995861","ECCENTRICITY":"0.00021160","TIME_SYSTEM":"UTC"},{"ECCENTRICITY":"0.00019070","TIME_SYSTEM":"UTC","GP_ID":"215996111","RA_OF_ASC_NODE":"124.1508","ARG_OF_PERICENTER":"57.9653","NORAD_CAT_ID":"51788","OBJECT_TYPE":"PAYLOAD","TLE_LINE2":"2 51788  53.2152 124.1508 0001907  57.9653 302.1524 15.08847911 37788","CLASSIFICATION_TYPE":"U","APOAPSIS":"541.040","COUNTRY_CODE":"US","FILE":"3630604","RCS_SIZE":"LARGE","REV_AT_EPOCH":"3778","OBJECT_NAME":"STARLINK-3641","OBJECT_ID":"2022-017W","MEAN_MOTION":"15.08847911","EPHEMERIS_TYPE":"0","ELEMENT_SET_NO":"999","PERIOD":"95.437","REF_FRAME":"TEME","TLE_LINE1":"1 51788U 22017W   22296.71922279  .00001006  00000-0  81316-4 0  9991","MEAN_MOTION_DOT":"0.00001006","MEAN_ANOMALY":"302.1524","DECAY_DATE":null,"INCLINATION":"53.2152","EPOCH":"2022-10-23T17:15:40.849056","MEAN_MOTION_DDOT":"0.0000000000000","BSTAR":"0.00008131600000","LAUNCH_DATE":"2022-02-25","PERIAPSIS":"538.402","SITE":"AFWTR","SEMIMAJOR_AXIS":"6917.856","MEAN_ELEMENT_THEORY":"SGP4","CENTER_NAME":"EARTH"},{"EPOCH":"2022-10-23T19:12:15.585696","INCLINATION":"53.2172","MEAN_MOTION_DDOT":"0.0000000000000","ELEMENT_SET_NO":"999","PERIOD":"95.437","TLE_LINE1":"1 51789U 22017X   22296.80018039 -.00000142  00000-0  91777-5 0  9996","MEAN_MOTION_DOT":"-0.00000142","MEAN_ANOMALY":"311.6793","DECAY_DATE":null,"REF_FRAME":"TEME","CENTER_NAME":"EARTH","MEAN_ELEMENT_THEORY":"SGP4","BSTAR":"0.00000917770000","SITE":"AFWTR","SEMIMAJOR_AXIS":"6917.860","LAUNCH_DATE":"2022-02-25","PERIAPSIS":"538.373","RA_OF_ASC_NODE":"123.7761","ARG_OF_PERICENTER":"48.4366","NORAD_CAT_ID":"51789","APOAPSIS":"541.077","TLE_LINE2":"2 51789  53.2172 123.7761 0001954  48.4366 311.6793 15.08846625 36159","OBJECT_TYPE":"PAYLOAD","CLASSIFICATION_TYPE":"U","TIME_SYSTEM":"UTC","ECCENTRICITY":"0.00019540","GP_ID":"215996862","OBJECT_NAME":"STARLINK-3639","EPHEMERIS_TYPE":"0","OBJECT_ID":"2022-017X","MEAN_MOTION":"15.08846625","COUNTRY_CODE":"US","FILE":"3630604","RCS_SIZE":"LARGE","REV_AT_EPOCH":"3615"},{"CENTER_NAME":"EARTH","MEAN_ELEMENT_THEORY":"SGP4","SITE":"AFWTR","SEMIMAJOR_AXIS":"6917.843","LAUNCH_DATE":"2022-02-25","PERIAPSIS":"538.512","BSTAR":"0.00005795800000","MEAN_MOTION_DDOT":"0.0000000000000","EPOCH":"2022-10-23T18:45:45.287424","INCLINATION":"53.2172","MEAN_MOTION_DOT":"0.00000635","TLE_LINE1":"1 51790U 22017Y   22296.78177416  .00000635  00000-0  57958-4 0  9998","MEAN_ANOMALY":"304.0818","DECAY_DATE":null,"REF_FRAME":"TEME","ELEMENT_SET_NO":"999","PERIOD":"95.437","EPHEMERIS_TYPE":"0","OBJECT_ID":"2022-017Y","MEAN_MOTION":"15.08852099","OBJECT_NAME":"STARLINK-3631","FILE":"3630604","RCS_SIZE":"LARGE","REV_AT_EPOCH":"3784","COUNTRY_CODE":"US","APOAPSIS":"540.905","TLE_LINE2":"2 51790  53.2172 123.8726 0001729  56.0338 304.0818 15.08852099 37840","CLASSIFICATION_TYPE":"U","OBJECT_TYPE":"PAYLOAD","ARG_OF_PERICENTER":"56.0338","RA_OF_ASC_NODE":"123.8726","NORAD_CAT_ID":"51790","GP_ID":"215996613","ECCENTRICITY":"0.00017290","TIME_SYSTEM":"UTC"},{"MEAN_MOTION_DDOT":"0.0000000000000","INCLINATION":"53.2148","EPOCH":"2022-10-23T19:01:40.022976","REF_FRAME":"TEME","TLE_LINE1":"1 51791U 22017Z   22296.79282434  .00006911  00000-0  45170-3 0  9992","MEAN_MOTION_DOT":"0.00006911","DECAY_DATE":null,"MEAN_ANOMALY":"301.1955","ELEMENT_SET_NO":"999","PERIOD":"95.436","MEAN_ELEMENT_THEORY":"SGP4","CENTER_NAME":"EARTH","LAUNCH_DATE":"2022-02-25","PERIAPSIS":"538.376","SITE":"AFWTR","SEMIMAJOR_AXIS":"6917.828","BSTAR":"0.00045170000000","OBJECT_TYPE":"PAYLOAD","TLE_LINE2":"2 51791  53.2148 123.8061 0001903  58.9224 301.1955 15.08857174 37798","CLASSIFICATION_TYPE":"U","APOAPSIS":"541.009","RA_OF_ASC_NODE":"123.8061","ARG_OF_PERICENTER":"58.9224","NORAD_CAT_ID":"51791","GP_ID":"215995361","TIME_SYSTEM":"UTC","ECCENTRICITY":"0.00019030","OBJECT_ID":"2022-017Z","MEAN_MOTION":"15.08857174","EPHEMERIS_TYPE":"0","OBJECT_NAME":"STARLINK-3602","FILE":"3630604","RCS_SIZE":"LARGE","REV_AT_EPOCH":"3779","COUNTRY_CODE":"US"},{"MEAN_ELEMENT_THEORY":"SGP4","CENTER_NAME":"EARTH","LAUNCH_DATE":"2022-02-25","PERIAPSIS":"538.760","SITE":"AFWTR","SEMIMAJOR_AXIS":"6917.853","BSTAR":"0.00024394000000","MEAN_MOTION_DDOT":"0.0000000000000","INCLINATION":"53.2140","EPOCH":"2022-10-23T16:59:47.016384","REF_FRAME":"TEME","TLE_LINE1":"1 51792U 22017AA  22296.70818306  .00003597  00000-0  24394-3 0  9999","MEAN_MOTION_DOT":"0.00003597","MEAN_ANOMALY":"273.4461","DECAY_DATE":null,"ELEMENT_SET_NO":"999","PERIOD":"95.437","OBJECT_ID":"2022-017AA","MEAN_MOTION":"15.08849076","EPHEMERIS_TYPE":"0","OBJECT_NAME":"STARLINK-3626","FILE":"3630604","REV_AT_EPOCH":"3783","RCS_SIZE":"LARGE","COUNTRY_CODE":"US","TLE_LINE2":"2 51792  53.2140 124.1996 0001384  86.6689 273.4461 15.08849076 37838","OBJECT_TYPE":"PAYLOAD","CLASSIFICATION_TYPE":"U","APOAPSIS":"540.675","ARG_OF_PERICENTER":"86.6689","RA_OF_ASC_NODE":"124.1996","NORAD_CAT_ID":"51792","GP_ID":"215995611","ECCENTRICITY":"0.00013840","TIME_SYSTEM":"UTC"},{"COUNTRY_CODE":"US","REV_AT_EPOCH":"3784","RCS_SIZE":"LARGE","FILE":"3630604","OBJECT_NAME":"STARLINK-3633","MEAN_MOTION":"15.08840060","OBJECT_ID":"2022-017AB","EPHEMERIS_TYPE":"0","TIME_SYSTEM":"UTC","ECCENTRICITY":"0.00017390","GP_ID":"215996362","NORAD_CAT_ID":"51793","ARG_OF_PERICENTER":"53.3222","RA_OF_ASC_NODE":"123.8365","CLASSIFICATION_TYPE":"U","TLE_LINE2":"2 51793  53.2182 123.8365 0001739  53.3222 306.7930 15.08840060 37845","OBJECT_TYPE":"PAYLOAD","APOAPSIS":"540.948","BSTAR":"0.00006362500000","PERIAPSIS":"538.542","LAUNCH_DATE":"2022-02-25","SEMIMAJOR_AXIS":"6917.880","SITE":"AFWTR","MEAN_ELEMENT_THEORY":"SGP4","CENTER_NAME":"EARTH","PERIOD":"95.438","ELEMENT_SET_NO":"999","REF_FRAME":"TEME","MEAN_ANOMALY":"306.7930","DECAY_DATE":null,"MEAN_MOTION_DOT":"0.00000725","TLE_LINE1":"1 51793U 22017AB  22296.78914296  .00000725  00000-0  63625-4 0  9994","INCLINATION":"53.2182","EPOCH":"2022-10-23T18:56:21.951744","MEAN_MOTION_DDOT":"0.0000000000000"}];
